{"type": "FeatureCollection", "features": [ {"type": "Feature", "properties": {"norad_id": 66458, "name": "STARLINK-35684", "group": "last-30-days", "lat": 37.404654558140756, "lon": -178.36984541120614, "alt_km": 380.7744493243881, "timestamp": "2025-12-03T06:58:42.032050+00:00", "meta": {"OBJECT_NAME": "STARLINK-35684", "OBJECT_ID": "2025-262C", "EPOCH": "2025-12-02T20:00:03.000384", "MEAN_MOTION": 15.62730271, "ECCENTRICITY": 0.00018, "INCLINATION": 42.9994, "RA_OF_ASC_NODE": 129.2027, "ARG_OF_PERICENTER": 278.761, "MEAN_ANOMALY": 89.6268, "EPHEMERIS_TYPE": 0, "CLASSIFICATION_TYPE": "U", "NORAD_CAT_ID": 66458, "ELEMENT_SET_NO": 999, "REV_AT_EPOCH": 404, "BSTAR": -0.025265, "MEAN_MOTION_DOT": -0.02044187, "MEAN_MOTION_DDOT": 0}, "tle": {"line1": "1 66458U 25262C   25336.83336806 -.02044187  00000+0 -25265-1 0  9990", "line2": "2 66458  42.9994 129.2027 0001800 278.7610  89.6268 15.62730271  4042"}}, "geometry": {"type": "Point", "coordinates": [-178.36984541120614, 37.404654558140756]}}, {"type": "Feature", "properties": {"norad_id": 66459, "name": "STARLINK-35449", "group": "last-30-days", "lat": 38.81436042300567, "lon": -173.84074903396478, "alt_km": 380.5860958503854, "timestamp": "2025-12-03T06:58:42.032062+00:00", "meta": {"OBJECT_NAME": "STARLINK-35449", "OBJECT_ID": "2025-262D", "EPOCH": "2025-12-02T20:00:03.000384", "MEAN_MOTION": 15.6273098, "ECCENTRICITY": 0.0001799, "INCLINATION": 42.9997, "RA_OF_ASC_NODE": 129.1932, "ARG_OF_PERICENTER": 280.7609, "MEAN_ANOMALY": 91.463, "EPHEMERIS_TYPE": 0, "CLASSIFICATION_TYPE": "U", "NORAD_CAT_ID": 66459, "ELEMENT_SET_NO": 999, "REV_AT_EPOCH": 404, "BSTAR": -0.025309, "MEAN_MOTION_DOT": -0.02047338, "MEAN_MOTION_DDOT": 0}, "tle": {"line1": "1 66459U 25262D   25336.83336806 -.02047338  00000+0 -25309-1 0  9991", "line2": "2 66459  42.9997 129.1932 0001799 280.7609  91.4630 15.62730980  4049"}}, "geometry": {"type": "Point", "coordinates": [-173.84074903396478, 38.81436042300567]}}, {"type": "Feature", "properties": {"norad_id": 66460, "name": "STARLINK-35424", "group": "last-30-days", "lat": 39.451940096513695, "lon": -171.51140070696664, "alt_km": 380.39712499134566, "timestamp": "2025-12-03T06:58:42.032073+00:00", "meta": {"OBJECT_NAME": "STARLINK-35424", "OBJECT_ID": "2025-262E", "EPOCH": "2025-12-02T20:00:03.000384", "MEAN_MOTION": 15.62736067, "ECCENTRICITY": 0.0001624, "INCLINATION": 43, "RA_OF_ASC_NODE": 129.1885, "ARG_OF_PERICENTER": 281.9987, "MEAN_ANOMALY": 92.1402, "EPHEMERIS_TYPE": 0, "CLASSIFICATION_TYPE": "U", "NORAD_CAT_ID": 66460, "ELEMENT_SET_NO": 999, "REV_AT_EPOCH": 404, "BSTAR": -0.025382, "MEAN_MOTION_DOT": -0.02052688, "MEAN_MOTION_DDOT": 0}, "tle": {"line1": "1 66460U 25262E   25336.83336806 -.02052688  00000+0 -25382-1 0  9998", "line2": "2 66460  43.0000 129.1885 0001624 281.9987  92.1402 15.62736067  4041"}}, "geometry": {"type": "Point", "coordinates": [-171.51140070696664, 39.451940096513695]}}, {"type": "Feature", "properties": {"norad_id": 66461, "name": "STARLINK-35132", "group": "last-30-days", "lat": 40.04167135773451, "lon": -169.14052368499608, "alt_km": 380.35542359997817, "timestamp": "2025-12-03T06:58:42.032084+00:00", "meta": {"OBJECT_NAME": "STARLINK-35132", "OBJECT_ID": "2025-262F", "EPOCH": "2025-12-02T20:00:03.000384", "MEAN_MOTION": 15.62740662, "ECCENTRICITY": 0.0001697, "INCLINATION": 42.9999, "RA_OF_ASC_NODE": 129.1837, "ARG_OF_PERICENTER": 283.8676, "MEAN_ANOMALY": 92.1873, "EPHEMERIS_TYPE": 0, "CLASSIFICATION_TYPE": "U", "NORAD_CAT_ID": 66461, "ELEMENT_SET_NO": 999, "REV_AT_EPOCH": 404, "BSTAR": -0.025489, "MEAN_MOTION_DOT": -0.0206066, "MEAN_MOTION_DDOT": 0}, "tle": {"line1": "1 66461U 25262F   25336.83336806 -.02060660  00000+0 -25489-1 0  9996", "line2": "2 66461  42.9999 129.1837 0001697 283.8676  92.1873 15.62740662  4048"}}, "geometry": {"type": "Point", "coordinates": [-169.14052368499608, 40.04167135773451]}}, {"type": "Feature", "properties": {"norad_id": 66462, "name": "STARLINK-35499", "group": "last-30-days", "lat": 40.58179943161405, "lon": -166.7317016078036, "alt_km": 380.2751324434312, "timestamp": "2025-12-03T06:58:42.032095+00:00", "meta": {"OBJECT_NAME": "STARLINK-35499", "OBJECT_ID": "2025-262G", "EPOCH": "2025-12-02T20:00:03.000384", "MEAN_MOTION": 15.62742957, "ECCENTRICITY": 0.0001587, "INCLINATION": 42.9998, "RA_OF_ASC_NODE": 129.1784, "ARG_OF_PERICENTER": 281.4101, "MEAN_ANOMALY": 96.5603, "EPHEMERIS_TYPE": 0, "CLASSIFICATION_TYPE": "U", "NORAD_CAT_ID": 66462, "ELEMENT_SET_NO": 999, "REV_AT_EPOCH": 404, "BSTAR": -0.025505, "MEAN_MOTION_DOT": -0.02061835, "MEAN_MOTION_DDOT": 0}, "tle": {"line1": "1 66462U 25262G   25336.83336806 -.02061835  00000+0 -25505-1 0  9991", "line2": "2 66462  42.9998 129.1784 0001587 281.4101  96.5603 15.62742957  4042"}}, "geometry": {"type": "Point", "coordinates": [-166.7317016078036, 40.58179943161405]}}, {"type": "Feature", "properties": {"norad_id": 66463, "name": "STARLINK-35463", "group": "last-30-days", "lat": 41.507474861084376, "lon": -161.80218503820538, "alt_km": 380.3128376540999, "timestamp": "2025-12-03T06:58:42.032107+00:00", "meta": {"OBJECT_NAME": "STARLINK-35463", "OBJECT_ID": "2025-262H", "EPOCH": "2025-12-02T20:00:03.000384", "MEAN_MOTION": 15.62735718, "ECCENTRICITY": 0.0001777, "INCLINATION": 42.9996, "RA_OF_ASC_NODE": 129.1687, "ARG_OF_PERICENTER": 280.2612, "MEAN_ANOMALY": 101.5471, "EPHEMERIS_TYPE": 0, "CLASSIFICATION_TYPE": "U", "NORAD_CAT_ID": 66463, "ELEMENT_SET_NO": 999, "REV_AT_EPOCH": 404, "BSTAR": -0.025399, "MEAN_MOTION_DOT": -0.02053976, "MEAN_MOTION_DDOT": 0}, "tle": {"line1": "1 66463U 25262H   25336.83336806 -.02053976  00000+0 -25399-1 0  9990", "line2": "2 66463  42.9996 129.1687 0001777 280.2612 101.5471 15.62735718  4045"}}, "geometry": {"type": "Point", "coordinates": [-161.80218503820538, 41.507474861084376]}}, {"type": "Feature", "properties": {"norad_id": 66464, "name": "STARLINK-35435", "group": "last-30-days", "lat": 41.071358547386794, "lon": -164.28281212746452, "alt_km": 380.2149289033823, "timestamp": "2025-12-03T06:58:42.032117+00:00", "meta": {"OBJECT_NAME": "STARLINK-35435", "OBJECT_ID": "2025-262J", "EPOCH": "2025-12-02T20:00:03.000384", "MEAN_MOTION": 15.62740405, "ECCENTRICITY": 0.0001704, "INCLINATION": 42.9998, "RA_OF_ASC_NODE": 129.1737, "ARG_OF_PERICENTER": 286.3935, "MEAN_ANOMALY": 93.4952, "EPHEMERIS_TYPE": 0, "CLASSIFICATION_TYPE": "U", "NORAD_CAT_ID": 66464, "ELEMENT_SET_NO": 999, "REV_AT_EPOCH": 404, "BSTAR": -0.025488, "MEAN_MOTION_DOT": -0.02060574, "MEAN_MOTION_DDOT": 0}, "tle": {"line1": "1 66464U 25262J   25336.83336806 -.02060574  00000+0 -25488-1 0  9992", "line2": "2 66464  42.9998 129.1737 0001704 286.3935  93.4952 15.62740405  4041"}}, "geometry": {"type": "Point", "coordinates": [-164.28281212746452, 41.071358547386794]}}, {"type": "Feature", "properties": {"norad_id": 66465, "name": "STARLINK-35448", "group": "last-30-days", "lat": 42.21628076361411, "lon": -156.74573931783397, "alt_km": 380.2179413301983, "timestamp": "2025-12-03T06:58:42.032126+00:00", "meta": {"OBJECT_NAME": "STARLINK-35448", "OBJECT_ID": "2025-262K", "EPOCH": "2025-12-02T20:00:03.000384", "MEAN_MOTION": 15.62739234, "ECCENTRICITY": 0.0001711, "INCLINATION": 42.9994, "RA_OF_ASC_NODE": 129.1592, "ARG_OF_PERICENTER": 279.7503, "MEAN_ANOMALY": 105.8914, "EPHEMERIS_TYPE": 0, "CLASSIFICATION_TYPE": "U", "NORAD_CAT_ID": 66465, "ELEMENT_SET_NO": 999, "REV_AT_EPOCH": 404, "BSTAR": -0.025459, "MEAN_MOTION_DOT": -0.02058426, "MEAN_MOTION_DDOT": 0}, "tle": {"line1": "1 66465U 25262K   25336.83336806 -.02058426  00000+0 -25459-1 0  9994", "line2": "2 66465  42.9994 129.1592 0001711 279.7503 105.8914 15.62739234  4046"}}, "geometry": {"type": "Point", "coordinates": [-156.74573931783397, 42.21628076361411]}}, {"type": "Feature", "properties": {"norad_id": 66466, "name": "STARLINK-35388", "group": "last-30-days", "lat": 42.48644864639508, "lon": -154.1794698728801, "alt_km": 380.0572657687544, "timestamp": "2025-12-03T06:58:42.032136+00:00", "meta": {"OBJECT_NAME": "STARLINK-35388", "OBJECT_ID": "2025-262L", "EPOCH": "2025-12-02T20:00:03.000384", "MEAN_MOTION": 15.6273646, "ECCENTRICITY": 0.0001585, "INCLINATION": 42.9997, "RA_OF_ASC_NODE": 129.1532, "ARG_OF_PERICENTER": 283.6934, "MEAN_ANOMALY": 103.8649, "EPHEMERIS_TYPE": 0, "CLASSIFICATION_TYPE": "U", "NORAD_CAT_ID": 66466, "ELEMENT_SET_NO": 999, "REV_AT_EPOCH": 404, "BSTAR": -0.025387, "MEAN_MOTION_DOT": -0.02053034, "MEAN_MOTION_DDOT": 0}, "tle": {"line1": "1 66466U 25262L   25336.83336806 -.02053034  00000+0 -25387-1 0  9995", "line2": "2 66466  42.9997 129.1532 0001585 283.6934 103.8649 15.62736460  4046"}}, "geometry": {"type": "Point", "coordinates": [-154.1794698728801, 42.48644864639508]}}, {"type": "Feature", "properties": {"norad_id": 66467, "name": "STARLINK-35682", "group": "last-30-days", "lat": 41.889659456013426, "lon": -159.28977899631423, "alt_km": 380.3318125730448, "timestamp": "2025-12-03T06:58:42.032146+00:00", "meta": {"OBJECT_NAME": "STARLINK-35682", "OBJECT_ID": "2025-262M", "EPOCH": "2025-12-02T20:00:03.000384", "MEAN_MOTION": 15.6273491, "ECCENTRICITY": 0.0001829, "INCLINATION": 42.9997, "RA_OF_ASC_NODE": 129.164, "ARG_OF_PERICENTER": 277.8823, "MEAN_ANOMALY": 105.8404, "EPHEMERIS_TYPE": 0, "CLASSIFICATION_TYPE": "U", "NORAD_CAT_ID": 66467, "ELEMENT_SET_NO": 999, "REV_AT_EPOCH": 404, "BSTAR": -0.025343, "MEAN_MOTION_DOT": -0.02050031, "MEAN_MOTION_DDOT": 0}, "tle": {"line1": "1 66467U 25262M   25336.83336806 -.02050031  00000+0 -25343-1 0  9992", "line2": "2 66467  42.9997 129.1640 0001829 277.8823 105.8404 15.62734910  4049"}}, "geometry": {"type": "Point", "coordinates": [-159.28977899631423, 41.889659456013426]}}]}